     2              NAVIGATION DATA                         RINEX VERSION / TYPE
CCRINEXN V1.6.0 UX  CDDIS               14-OCT-17 00:31     PGM / RUN BY / DATE 
IGS BROADCAST EPHEMERIS FILE                                COMMENT             
    0.1118D-07  0.0000D+00 -0.5960D-07  0.0000D+00          ION ALPHA           
    0.9011D+05  0.0000D+00 -0.1966D+06  0.0000D+00          ION BETA            
    0.372529029846D-08 0.976996261670D-14   589824     1970 DELTA-UTC: A0,A1,T,W
    18                                                      LEAP SECONDS        
                                                            END OF HEADER       
17 17 10 13  0  0  0.0-0.151353888214D-03 0.227373675443D-11 0.000000000000D+00
    0.820000000000D+02-0.340625000000D+02 0.409267047615D-08-0.307237475635D+01
   -0.162050127983D-05 0.119647823740D-01 0.367313623428D-05 0.515369783211D+04
    0.432000000000D+06 0.763684511185D-07 0.380157255327D+00-0.447034835815D-07
    0.981298462586D+00 0.318031250000D+03-0.184028112595D+01-0.792711591048D-08
    0.382158775590D-10 0.100000000000D+01 0.197000000000D+04 0.000000000000D+00
    0.280000000000D+01 0.000000000000D+00-0.111758708954D-07 0.820000000000D+02
    0.424818000000D+06 0.400000000000D+01 0.000000000000D+00 0.000000000000D+00
18 17 10 13  0  0  0.0 0.631230417639D-03 0.568434188608D-12 0.000000000000D+00
    0.840000000000D+02-0.390625000000D+01 0.528307708692D-08-0.158502948835D+01
    0.139698386192D-06 0.181266003056D-01 0.920519232750D-05 0.515363500595D+04
    0.432000000000D+06 0.253319740295D-06 0.237659939591D+01 0.348314642906D-06
    0.926061335498D+00 0.179781250000D+03-0.177774600820D+01-0.827677304471D-08
    0.331442373547D-09 0.100000000000D+01 0.197000000000D+04 0.000000000000D+00
    0.200000000000D+01 0.000000000000D+00-0.111758708954D-07 0.840000000000D+02
    0.432000000000D+06 0.000000000000D+00 0.000000000000D+00 0.000000000000D+00
19 17 10 13  0  0  0.0-0.481504015625D-03 0.204636307899D-11 0.000000000000D+00
    0.470000000000D+02-0.310312500000D+02 0.421731852539D-08-0.909085953022D-01
   -0.149384140968D-05 0.994320947211D-02 0.428780913353D-05 0.515368021774D+04
    0.432000000000D+06-0.875443220139D-07 0.427642524342D+00 0.229105353355D-06
    0.978629874720D+00 0.307937500000D+03 0.108044154726D+01-0.831641784076D-08
    0.600024993449D-10 0.100000000000D+01 0.197000000000D+04 0.000000000000D+00
    0.200000000000D+01 0.000000000000D+00-0.153668224812D-07 0.470000000000D+02
    0.424818000000D+06 0.400000000000D+01 0.000000000000D+00 0.000000000000D+00
20 17 10 13  0  0  0.0 0.489516649395D-03 0.113686837722D-11 0.000000000000D+00
    0.840000000000D+02-0.239687500000D+02 0.528700593931D-08 0.220998354653D+01
   -0.125542283058D-05 0.461105920840D-02 0.968948006630D-05 0.515374640465D+04
    0.432000000000D+06 0.800937414169D-07 0.232544697163D+01-0.484287738800D-07
    0.927419850965D+00 0.175968750000D+03 0.168381994833D+01-0.823748598150D-08
    0.295369446180D-09 0.100000000000D+01 0.197000000000D+04 0.000000000000D+00
    0.200000000000D+01 0.000000000000D+00-0.838190317154D-08 0.840000000000D+02
    0.424818000000D+06 0.400000000000D+01 0.000000000000D+00 0.000000000000D+00
21 17 10 13  0  0  0.0-0.471678096801D-03 0.318323145621D-11 0.000000000000D+00
    0.880000000000D+02-0.652500000000D+02 0.498985070445D-08-0.682642260619D+00
   -0.331923365593D-05 0.240012045251D-01 0.797212123871D-05 0.515359147835D+04
    0.432000000000D+06-0.307336449623D-06 0.133648030940D+01 0.236555933952D-06
    0.940933523075D+00 0.222312500000D+03-0.163393165643D+01-0.877250826732D-08
    0.164292557730D-09 0.100000000000D+01 0.197000000000D+04 0.000000000000D+00
    0.200000000000D+01 0.000000000000D+00-0.977888703346D-08 0.880000000000D+02
    0.428070000000D+06 0.400000000000D+01 0.000000000000D+00 0.000000000000D+00
22 17 10 13  0  0  0.0-0.152857508510D-03-0.127329258248D-10 0.000000000000D+00
    0.620000000000D+02-0.296875000000D+01 0.539272462863D-08 0.256157964362D+01
   -0.262632966042D-06 0.719149806537D-02 0.956840813160D-05 0.515370291901D+04
    0.432000000000D+06 0.875443220139D-07 0.237619873776D+01 0.167638063431D-07
    0.924156126081D+00 0.177781250000D+03-0.166724982196D+01-0.824641492485D-08
    0.375372778640D-09 0.100000000000D+01 0.197000000000D+04 0.000000000000D+00
    0.200000000000D+01 0.000000000000D+00-0.176951289177D-07 0.620000000000D+02
    0.431070000000D+06 0.400000000000D+01 0.000000000000D+00 0.000000000000D+00
23 17 10 13  0  0  0.0-0.218064058572D-03-0.227373675443D-12 0.000000000000D+00
    0.660000000000D+02 0.146250000000D+02 0.535165156634D-08 0.183493390583D+01
    0.750645995140D-06 0.118679632433D-01 0.723823904991D-05 0.515366155052D+04
    0.432000000000D+06-0.314787030220D-06-0.282044170452D+01-0.186264514923D-08
    0.944367711563D+00 0.235531250000D+03-0.241809105152D+01-0.841249292449D-08
   -0.342871425696D-10 0.100000000000D+01 0.197000000000D+04 0.000000000000D+00
    0.200000000000D+01 0.000000000000D+00-0.204890966415D-07 0.660000000000D+02
    0.432000000000D+06 0.000000000000D+00 0.000000000000D+00 0.000000000000D+00
24 17 10 13  0  0  0.0-0.408156774938D-04-0.454747350886D-12 0.000000000000D+00
    0.530000000000D+02 0.179687500000D+02 0.505949637741D-08 0.131068518255D+01
    0.111758708954D-05 0.605294015259D-02 0.874511897564D-05 0.515367554474D+04
    0.432000000000D+06-0.391155481338D-07-0.179836251478D+01 0.838190317154D-07
    0.943717129949D+00 0.200531250000D+03 0.470274177881D+00-0.837142000165D-08
   -0.467519467584D-09 0.100000000000D+01 0.197000000000D+04 0.000000000000D+00
    0.280000000000D+01 0.000000000000D+00 0.279396772385D-08 0.530000000000D+02
    0.432000000000D+06 0.000000000000D+00 0.000000000000D+00 0.000000000000D+00
25 17 10 13  0  0  0.0-0.471679959446D-03-0.636646291241D-11 0.000000000000D+00
    0.152000000000D+03 0.580000000000D+02 0.418267420699D-08-0.660486075188D+00
    0.296905636787D-05 0.658408994786D-02 0.756978988647D-05 0.515374583817D+04
    0.432000000000D+06 0.204890966415D-07-0.711700219982D+00 0.128522515297D-06
    0.976214090801D+00 0.240687500000D+03 0.818433782389D+00-0.806247868468D-08
   -0.771460673121D-10 0.100000000000D+01 0.197000000000D+04 0.000000000000D+00
    0.200000000000D+01 0.000000000000D+00 0.558793544769D-08 0.152000000000D+03
    0.432000000000D+06 0.000000000000D+00 0.000000000000D+00 0.000000000000D+00
26 17 10 13  0  0  0.0-0.398608855903D-03 0.120508047985D-10 0.000000000000D+00
    0.600000000000D+02 0.643437500000D+02 0.447375780865D-08-0.121145766701D+01
    0.342912971973D-05 0.198566610925D-02 0.717863440514D-05 0.515378399086D+04
    0.432000000000D+06-0.372529029846D-07-0.729576091441D+00-0.279396772385D-07
    0.957885286739D+00 0.242031250000D+03-0.433932384511D-01-0.813462452953D-08
   -0.428589282120D-10 0.100000000000D+01 0.197000000000D+04 0.000000000000D+00
    0.200000000000D+01 0.000000000000D+00 0.745058059692D-08 0.600000000000D+02
    0.432000000000D+06 0.000000000000D+00 0.000000000000D+00 0.000000000000D+00
27 17 10 13  0  0  0.0 0.336383003741D-03 0.432009983342D-11 0.000000000000D+00
    0.600000000000D+02-0.241250000000D+02 0.420981821297D-08-0.303685373024D+01
   -0.124238431454D-05 0.496577401645D-02 0.408291816711D-05 0.515367213058D+04
    0.432000000000D+06-0.186264514923D-07 0.327414359677D+00-0.614672899246D-07
    0.976157503667D+00 0.308406250000D+03 0.385282053390D+00-0.809319425688D-08
    0.457161899771D-10 0.100000000000D+01 0.197000000000D+04 0.000000000000D+00
    0.200000000000D+01 0.000000000000D+00 0.139698386192D-08 0.600000000000D+02
    0.431610000000D+06 0.400000000000D+01 0.000000000000D+00 0.000000000000D+00
28 17 10 13  0  0  0.0 0.653513707221D-03 0.306954461848D-11 0.000000000000D+00
    0.560000000000D+02 0.858125000000D+02 0.377944298080D-08-0.216226256922D+01
    0.446289777756D-05 0.199151339475D-01 0.684708356857D-05 0.515366289520D+04
    0.432000000000D+06 0.346451997757D-06-0.631418546877D+00 0.126659870148D-06
    0.987733050703D+00 0.260625000000D+03-0.156122141825D+01-0.758817364499D-08
    0.567880811819D-10 0.100000000000D+01 0.197000000000D+04 0.000000000000D+00
    0.200000000000D+01 0.000000000000D+00-0.111758708954D-07 0.560000000000D+02
    0.432000000000D+06 0.000000000000D+00 0.000000000000D+00 0.000000000000D+00
29 17 10 13  0  0  0.0 0.551833771169D-03-0.477484718431D-11 0.000000000000D+00
    0.145000000000D+03-0.186562500000D+02 0.412267153749D-08-0.177204604341D+01
   -0.957399606705D-06 0.445622601546D-03 0.417605042458D-05 0.515355484200D+04
    0.432000000000D+06 0.484287738800D-07 0.390450007536D+00-0.372529029846D-07
    0.982470167803D+00 0.312406250000D+03 0.902140508059D+00-0.806997935143D-08
    0.892894352206D-11 0.100000000000D+01 0.197000000000D+04 0.000000000000D+00
    0.200000000000D+01 0.000000000000D+00-0.102445483208D-07 0.145000000000D+03
    0.432000000000D+06 0.000000000000D+00 0.000000000000D+00 0.000000000000D+00
30 17 10 13  0  0  0.0 0.135077629238D-03-0.238742359215D-11 0.000000000000D+00
    0.480000000000D+02 0.355000000000D+02 0.485770234280D-08 0.369057721353D+00
    0.170059502125D-05 0.305001623928D-02 0.897049903870D-05 0.515362147713D+04
    0.432000000000D+06 0.558793544769D-08-0.170557647624D+01-0.335276126862D-07
    0.946328549903D+00 0.195625000000D+03-0.305351416548D+01-0.823391440416D-08
   -0.461090634847D-09 0.100000000000D+01 0.197000000000D+04 0.000000000000D+00
    0.200000000000D+01 0.000000000000D+00 0.372529029846D-08 0.480000000000D+02
    0.424818000000D+06 0.400000000000D+01 0.000000000000D+00 0.000000000000D+00
